[{"OBJECT_NAME":"IRIDIUM 111","OBJECT_ID":"2017-003K","EPOCH":"2026-03-09T16:49:02.226144","MEAN_MOTION":14.34218028,"ECCENTRICITY":0.00021015,"INCLINATION":86.3976,"RA_OF_ASC_NODE":129.9805,"ARG_OF_PERICENTER":94.2487,"MEAN_ANOMALY":265.8949,"EPHEMERIS_TYPE":0,"CLASSIFICATION_TYPE":"U","NORAD_CAT_ID":41926,"ELEMENT_SET_NO":999,"REV_AT_EPOCH":47899,"BSTAR":1.777394e-5,"MEAN_MOTION_DOT":7.0e-7,"MEAN_MOTION_DDOT":0},{"OBJECT_NAME":"ORSTED","OBJECT_ID":"1999-008B","EPOCH":"2026-03-09T17:21:14.075712","MEAN_MOTION":14.51680933,"ECCENTRICITY":0.01330709,"INCLINATION":96.4811,"RA_OF_ASC_NODE":358.8375,"ARG_OF_PERICENTER":145.0719,"MEAN_ANOMALY":215.9303,"EPHEMERIS_TYPE":0,"CLASSIFICATION_TYPE":"U","NORAD_CAT_ID":25635,"ELEMENT_SET_NO":999,"REV_AT_EPOCH":42753,"BSTAR":0.00016967851,"MEAN_MOTION_DOT":7.32e-6,"MEAN_MOTION_DDOT":0}]
